NORAD_CAT_ID,OBJECT_NAME,OBJECT_TYPE,EPOCH,MEAN_MOTION,ECCENTRICITY,INCLINATION,RA_OF_ASC_NODE,ARG_OF_PERICENTER,MEAN_ANOMALY,BSTAR,MEAN_MOTION_DOT,MEAN_MOTION_DDOT,TLE_LINE0,TLE_LINE1,TLE_LINE2,SEMIMAJOR_AXIS,PERIOD,APOGEE,PERIGEE,DECAYED
52337.0,STARLINK-3797,PAYLOAD,2022-11-03 04:34:34,15.08844316,0.0003087,53.2158,297.1234,31.6824,328.4353,0.00013841,1.915e-05,0.0,0 STARLINK-3797,1 52337U 22045G   22307.19067171  .00001915  00000-0  13841-3 0  9995,2 52337  53.2158 297.1234 0003087  31.6824 328.4353 15.08844316 31086,6917.8669999999975,95.437,541.868,537.597,0.0
52337.0,STARLINK-3797,PAYLOAD,2022-11-03 09:20:43,15.08850051,0.0003175,53.2159,296.233,28.4666,331.6499,0.00019312,2.787e-05,0.0,0 STARLINK-3797,1 52337U 22045G   22307.38938830  .00002787  00000-0  19312-3 0  9992,2 52337  53.2159 296.2330 0003175  28.4666 331.6499 15.08850051 31114,6917.85,95.437,541.911,537.518,0.0
52337.0,STARLINK-3797,PAYLOAD,2022-11-04 02:49:57,15.08859458,0.0003237,53.2158,292.9623,28.9498,331.1673,0.00036841,5.583e-05,0.0,0 STARLINK-3797,1 52337U 22045G   22308.11802141  .00005583  00000-0  36841-3 0  9992,2 52337  53.2158 292.9623 0003237  28.9498 331.1673 15.08859458 31229,6917.821,95.436,541.925,537.447,0.0
52337.0,STARLINK-3797,PAYLOAD,2022-11-04 09:11:29,15.08857425,0.0003222,53.2159,291.7732,27.9282,332.1882,0.0002803,4.178e-05,0.0,0 STARLINK-3797,1 52337U 22045G   22308.38298006  .00004178  00000-0  28030-3 0  9990,2 52337  53.2159 291.7732 0003222  27.9282 332.1882 15.08857425 31261,6917.8269999999975,95.436,541.9209999999998,537.4630000000002,0.0
52337.0,STARLINK-3797,PAYLOAD,2022-11-04 15:33:02,15.08847354,0.0003241,53.2161,290.5839,28.4159,331.7009,3.4053e-05,2.53e-06,0.0,0 STARLINK-3797,1 52337U 22045G   22308.64794118  .00000253  00000-0  34053-4 0  9997,2 52337  53.2161 290.5839 0003241  28.4159 331.7009 15.08847354 31300,6917.858,95.437,541.965,537.481,0.0
52337.0,STARLINK-3797,PAYLOAD,2022-11-05 02:40:44,15.08839655,0.0003151,53.217,288.5027,28.3763,331.7401,6.8256e-07,-2.78e-06,0.0,0 STARLINK-3797,1 52337U 22045G   22309.11162757 -.00000278  00000-0  68256-6 0  9990,2 52337  53.2170 288.5027 0003151  28.3763 331.7401 15.08839655 31374,6917.880999999999,95.438,541.9259999999998,537.567,0.0
52337.0,STARLINK-3797,PAYLOAD,2022-11-05 09:02:17,15.088328699999998,0.0003344,53.2171,287.3151,24.6639,335.4512,-4.5662e-05,-1.015e-05,0.0,0 STARLINK-3797,1 52337U 22045G   22309.37659358 -.00001015  00000-0 -45662-4 0  9991,2 52337  53.2171 287.3151 0003344  24.6639 335.4512 15.08832870 31416,6917.901999999999,95.438,542.081,537.4540000000002,0.0
52337.0,STARLINK-3797,PAYLOAD,2022-11-05 15:23:51,15.08821134,0.0003263,53.217,286.1234,27.8195,332.2971,-0.00020795,-3.595e-05,0.0,0 STARLINK-3797,1 52337U 22045G   22309.64156734 -.00003595  00000-0 -20795-3 0  9995,2 52337  53.2170 286.1234 0003263  27.8195 332.2971 15.08821134 31455,6917.938,95.439,542.06,537.5459999999998,0.0
52337.0,STARLINK-3797,PAYLOAD,2022-11-06 07:17:43,15.08822943,0.0002964,53.2169,283.1499,25.4598,334.654,-0.00015709,-2.787e-05,0.0,0 STARLINK-3797,1 52337U 22045G   22310.30397080 -.00002787  00000-0 -15709-3 0  9992,2 52337  53.2169 283.1499 0002964  25.4598 334.6540 15.08822943 31559,6917.933000000001,95.439,541.8480000000002,537.747,0.0
52337.0,STARLINK-3797,PAYLOAD,2022-11-07 05:33:06,15.08837927,0.0002999,53.2168,278.987,25.2518,334.862,0.00010766,1.425e-05,0.0,0 STARLINK-3797,1 52337U 22045G   22311.23132134  .00001425  00000-0  10766-3 0  9996,2 52337  53.2168 278.9870 0002999  25.2518 334.8620 15.08837927 31695,6917.887,95.438,541.826,537.677,0.0
52337.0,STARLINK-3797,PAYLOAD,2022-11-07 15:05:24,15.08838616,0.0003016,53.2167,277.2027,24.1068,336.0065,0.00022108,3.232e-05,0.0,0 STARLINK-3797,1 52337U 22045G   22311.62875879  .00003232  00000-0  22108-3 0  9990,2 52337  53.2167 277.2027 0003016  24.1068 336.0065 15.08838616 31759,6917.885,95.438,541.836,537.663,0.0
52337.0,STARLINK-3797,PAYLOAD,2022-11-08 06:59:15,15.08843181,0.000299,53.2168,274.22900000000004,24.2088,335.9045,0.00030821,4.621e-05,0.0,0 STARLINK-3797,1 52337U 22045G   22312.29115587  .00004621  00000-0  30821-3 0  9991,2 52337  53.2168 274.2290 0002990  24.2088 335.9045 15.08843181 31852,6917.871,95.437,541.804,537.6669999999998,0.0
52337.0,STARLINK-3797,PAYLOAD,2022-11-08 14:56:11,15.08852533,0.0003034,53.217,272.7431,25.0933,335.0206,0.00028984,4.329e-05,0.0,0 STARLINK-3797,1 52337U 22045G   22312.62234960  .00004329  00000-0  28984-3 0  9997,2 52337  53.2170 272.7431 0003034  25.0933 335.0206 15.08852533 31900,6917.842,95.437,541.806,537.6080000000002,0.0
52337.0,STARLINK-3797,PAYLOAD,2022-11-09 03:39:14,15.08870633,0.0003051,53.2173,270.3634,27.4738,332.6415,0.00023788,3.503e-05,0.0,0 STARLINK-3797,1 52337U 22045G   22313.15225449  .00003503  00000-0  23788-3 0  9998,2 52337  53.2173 270.3634 0003051  27.4738 332.6415 15.08870633 31984,6917.7869999999975,95.436,541.762,537.5409999999998,0.0
52337.0,STARLINK-3797,PAYLOAD,2022-11-09 21:08:31,15.08821754,0.0002848,53.2183,267.0909,24.7672,335.3457,-0.00045641,-7.542e-05,0.0,0 STARLINK-3797,1 52337U 22045G   22313.88091861 -.00007542  00000-0 -45641-3 0  9998,2 52337  53.2183 267.0909 0002848  24.7672 335.3457 15.08821754 32092,6917.936,95.439,541.771,537.831,0.0
52337.0,STARLINK-3797,PAYLOAD,2022-11-10 06:40:50,15.08822028,0.0002804,53.217,265.307,25.3974,334.7155,-0.00045587,-7.533e-05,0.0,0 STARLINK-3797,1 52337U 22045G   22314.27836126 -.00007533  00000-0 -45587-3 0  9992,2 52337  53.2170 265.3070 0002804  25.3974 334.7155 15.08822028 32152,6917.935,95.439,541.74,537.861,0.0
52337.0,STARLINK-3797,PAYLOAD,2022-11-11 04:56:15,15.08824174,0.0002918999999999,53.2165,261.1449,25.0996,335.0138,-0.00018266,-3.193e-05,0.0,0 STARLINK-3797,1 52337U 22045G   22315.20573163 -.00003193  00000-0 -18266-3 0  9997,2 52337  53.2165 261.1449 0002919  25.0996 335.0138 15.08824174 32292,6917.929,95.439,541.813,537.774,0.0
52337.0,STARLINK-3797,PAYLOAD,2022-11-11 06:31:38,15.08813358,0.0001529,53.2164,260.8475,27.9293,332.1781,0.00015905,2.242e-05,0.0,0 STARLINK-3797,1 52337U 22045G   22315.27197696  .00002242  00000-0  15905-3 0  9996,2 52337  53.2164 260.8475 0001529  27.9293 332.1781 15.08813358 32309,6917.962,95.439,540.885,538.769,0.0
52337.0,STARLINK-3797,PAYLOAD,2022-11-11 20:50:07,15.08826215,0.0002921999999999,53.2164,258.1712,24.0692,336.0436,0.00053687,8.263e-05,0.0,0 STARLINK-3797,1 52337U 22045G   22315.86814273  .00008263  00000-0  53687-3 0  9996,2 52337  53.2164 258.1712 0002922  24.0692 336.0436 15.08826215 32397,6917.9230000000025,95.438,541.809,537.766,0.0
52337.0,STARLINK-3797,PAYLOAD,2022-11-12 04:47:02,15.08862219,0.0002958,53.2165,256.6845,25.0471,335.0664,0.0012785,0.00020131,0.0,0 STARLINK-3797,1 52337U 22045G   22316.19933732  .00020131  00000-0  12785-2 0  9996,2 52337  53.2165 256.6845 0002958  25.0471 335.0664 15.08862219 32445,6917.812,95.436,541.724,537.631,0.0
52337.0,STARLINK-3797,PAYLOAD,2022-11-12 06:22:25,15.08865596,0.000296,53.2167,256.3876,24.3481,335.765,0.0013389,0.00021101,0.0,0 STARLINK-3797,1 52337U 22045G   22316.26557653  .00021101  00000-0  13389-2 0  9997,2 52337  53.2167 256.3876 0002960  24.3481 335.7650 15.08865596 32458,6917.802,95.436,541.715,537.619,0.0
52337.0,STARLINK-3797,PAYLOAD,2022-11-12 20:40:53,15.08859789,0.0002976,53.2162,253.7107,24.4344,335.6788,0.00065929,0.00010226,0.0,0 STARLINK-3797,1 52337U 22045G   22316.86173457  .00010226  00000-0  65929-3 0  9993,2 52337  53.2162 253.7107 0002976  24.4344 335.6788 15.08859789 32545,6917.82,95.436,541.744,537.626,0.0
52337.0,STARLINK-3797,PAYLOAD,2022-11-13 04:37:49,15.08843523,0.0002967,53.2165,252.2243,25.3509,334.7629,0.0005181,7.968e-05,0.0,0 STARLINK-3797,1 52337U 22045G   22317.19293503  .00007968  00000-0  51810-3 0  9998,2 52337  53.2165 252.2243 0002967  25.3509 334.7629 15.08843523 32594,6917.87,95.437,541.7869999999998,537.682,0.0
52337.0,STARLINK-3797,PAYLOAD,2022-11-13 06:13:12,15.08841926,0.0002921999999999,53.2164,251.9273,25.6602,334.4534,-1.8007e-05,-5.75e-06,0.0,0 STARLINK-3797,1 52337U 22045G   22317.25917530 -.00000575  00000-0 -18007-4 0  9999,2 52337  53.2164 251.9273 0002922  25.6602 334.4534 15.08841926 32609,6917.875,95.437,541.761,537.7180000000002,0.0
52337.0,STARLINK-3797,PAYLOAD,2022-11-13 18:56:17,15.0883906,0.0003176,53.2161,249.5485,28.9047,331.212,0.0001324,1.819e-05,0.0,0 STARLINK-3797,1 52337U 22045G   22317.78909545  .00001819  00000-0  13240-3 0  9997,2 52337  53.2161 249.5485 0003176  28.9047 331.2120 15.08839060 32685,6917.8830000000025,95.438,541.945,537.5509999999998,0.0
52337.0,STARLINK-3797,PAYLOAD,2022-11-14 06:04:00,15.08839069,0.0002981,53.2159,247.4662,27.3405,332.7743,1.0703e-05,-1.18e-06,0.0,0 STARLINK-3797,1 52337U 22045G   22318.25278024 -.00000118  00000-0  10703-4 0  9995,2 52337  53.2159 247.4662 0002981  27.3405 332.7743 15.08839069 32754,6917.8830000000025,95.438,541.81,537.686,0.0
52337.0,STARLINK-3797,PAYLOAD,2022-11-14 12:25:32,15.08843532,0.0003106,53.2162,246.2771,28.8217,331.2946,0.00015889,2.241e-05,0.0,0 STARLINK-3797,1 52337U 22045G   22318.51773741  .00002241  00000-0  15889-3 0  9997,2 52337  53.2162 246.2771 0003106  28.8217 331.2946 15.08843532 32796,6917.87,95.437,541.883,537.586,0.0
52337.0,STARLINK-3797,PAYLOAD,2022-11-15 02:44:00,15.08844577,0.0002895,53.2157,243.6012,26.6725,333.4415,0.00018313,2.628e-05,0.0,0 STARLINK-3797,1 52337U 22045G   22319.11389774  .00002628  00000-0  18313-3 0  9997,2 52337  53.2157 243.6012 0002895  26.6725 333.4415 15.08844577 32888,6917.866,95.437,541.734,537.729,0.0
52337.0,STARLINK-3797,PAYLOAD,2022-11-15 12:16:19,15.08845238,0.0002981,53.2157,241.8163,27.285,332.8298,0.0002155,3.143e-05,0.0,0 STARLINK-3797,1 52337U 22045G   22319.51133737  .00003143  00000-0  21550-3 0  9997,2 52337  53.2157 241.8163 0002981  27.2850 332.8298 15.08845238 32941,6917.864000000001,95.437,541.7919999999998,537.6669999999998,0.0
